{"type": "FeatureCollection", "features": [ {"type": "Feature", "properties": {"norad_id": 44622, "name": "GAOFEN-10R", "group": "resource", "lat": 20.563624806457785, "lon": 108.08369357962677, "alt_km": 620.9321710147915, "timestamp": "2025-12-03T13:52:09.223023+00:00", "meta": {"OBJECT_NAME": "GAOFEN-10R", "OBJECT_ID": "2019-066A", "EPOCH": "2025-12-03T08:17:45.283200", "MEAN_MOTION": 14.82737076, "ECCENTRICITY": 0.00082621, "INCLINATION": 98.0262, "RA_OF_ASC_NODE": 284.8163, "ARG_OF_PERICENTER": 67.5198, "MEAN_ANOMALY": 292.6889, "EPHEMERIS_TYPE": 0, "CLASSIFICATION_TYPE": "U", "NORAD_CAT_ID": 44622, "ELEMENT_SET_NO": 999, "REV_AT_EPOCH": 33335, "BSTAR": 0.00034774699, "MEAN_MOTION_DOT": 2.755e-05, "MEAN_MOTION_DDOT": 0}, "tle": {"line1": "1 44622U 19066A   25337.34566300  .00002755  00000+0  34775-3 0  9994", "line2": "2 44622  98.0262 284.8163 0008262  67.5198 292.6889 14.82737076333359"}}, "geometry": {"type": "Point", "coordinates": [108.08369357962677, 20.563624806457785]}}, {"type": "Feature", "properties": {"norad_id": 44804, "name": "CARTOSAT-3", "group": "resource", "lat": -20.203315103530688, "lon": -145.4871415647331, "alt_km": 512.4960540530046, "timestamp": "2025-12-03T13:52:09.223033+00:00", "meta": {"OBJECT_NAME": "CARTOSAT-3", "OBJECT_ID": "2019-081A", "EPOCH": "2025-12-03T08:14:58.100064", "MEAN_MOTION": 15.19233543, "ECCENTRICITY": 0.00137551, "INCLINATION": 97.4604, "RA_OF_ASC_NODE": 37.0456, "ARG_OF_PERICENTER": 116.7335, "MEAN_ANOMALY": 243.5309, "EPHEMERIS_TYPE": 0, "CLASSIFICATION_TYPE": "U", "NORAD_CAT_ID": 44804, "ELEMENT_SET_NO": 999, "REV_AT_EPOCH": 33373, "BSTAR": 0.00015272593, "MEAN_MOTION_DOT": 3.156e-05, "MEAN_MOTION_DDOT": 0}, "tle": {"line1": "1 44804U 19081A   25337.34372801  .00003156  00000+0  15273-3 0  9992", "line2": "2 44804  97.4604  37.0456 0013755 116.7335 243.5309 15.19233543333735"}}, "geometry": {"type": "Point", "coordinates": [-145.4871415647331, -20.203315103530688]}}, {"type": "Feature", "properties": {"norad_id": 44819, "name": "GAOFEN-12 01", "group": "resource", "lat": 43.4392261653013, "lon": 171.57006151078733, "alt_km": 624.546192183383, "timestamp": "2025-12-03T13:52:09.223044+00:00", "meta": {"OBJECT_NAME": "GAOFEN-12 01", "OBJECT_ID": "2019-082A", "EPOCH": "2025-12-03T08:23:28.968576", "MEAN_MOTION": 14.80639362, "ECCENTRICITY": 0.00012709, "INCLINATION": 97.8128, "RA_OF_ASC_NODE": 343.8771, "ARG_OF_PERICENTER": 298.0838, "MEAN_ANOMALY": 62.0246, "EPHEMERIS_TYPE": 0, "CLASSIFICATION_TYPE": "U", "NORAD_CAT_ID": 44819, "ELEMENT_SET_NO": 999, "REV_AT_EPOCH": 32511, "BSTAR": 0.00011135633, "MEAN_MOTION_DOT": 8.04e-06, "MEAN_MOTION_DDOT": 0}, "tle": {"line1": "1 44819U 19082A   25337.34964084  .00000804  00000+0  11136-3 0  9990", "line2": "2 44819  97.8128 343.8771 0001270 298.0838  62.0246 14.80639362325118"}}, "geometry": {"type": "Point", "coordinates": [171.57006151078733, 43.4392261653013]}}, {"type": "Feature", "properties": {"norad_id": 44873, "name": "CSG-1", "group": "resource", "lat": -17.250158128679786, "lon": -23.425388104025284, "alt_km": 627.9158676075613, "timestamp": "2025-12-03T13:52:09.223067+00:00", "meta": {"OBJECT_NAME": "CSG-1", "OBJECT_ID": "2019-092A", "EPOCH": "2025-12-03T08:07:16.057056", "MEAN_MOTION": 14.82143066, "ECCENTRICITY": 0.00014899, "INCLINATION": 97.8813, "RA_OF_ASC_NODE": 158.804, "ARG_OF_PERICENTER": 86.5397, "MEAN_ANOMALY": 273.5986, "EPHEMERIS_TYPE": 0, "CLASSIFICATION_TYPE": "U", "NORAD_CAT_ID": 44873, "ELEMENT_SET_NO": 999, "REV_AT_EPOCH": 32246, "BSTAR": 0.0001866913, "MEAN_MOTION_DOT": 1.434e-05, "MEAN_MOTION_DDOT": 0}, "tle": {"line1": "1 44873U 19092A   25337.33838029  .00001434  00000+0  18669-3 0  9997", "line2": "2 44873  97.8813 158.8040 0001489  86.5397 273.5986 14.82143066322462"}}, "geometry": {"type": "Point", "coordinates": [-23.425388104025284, -17.250158128679786]}}, {"type": "Feature", "properties": {"norad_id": 46277, "name": "NEMO-HD", "group": "resource", "lat": -64.48807269510979, "lon": -158.61803279798156, "alt_km": 454.88612587568514, "timestamp": "2025-12-03T13:52:09.223079+00:00", "meta": {"OBJECT_NAME": "NEMO-HD", "OBJECT_ID": "2020-061F", "EPOCH": "2025-12-03T08:07:42.682080", "MEAN_MOTION": 15.40023388, "ECCENTRICITY": 0.00023626, "INCLINATION": 97.2233, "RA_OF_ASC_NODE": 36.5584, "ARG_OF_PERICENTER": 67.9205, "MEAN_ANOMALY": 292.2293, "EPHEMERIS_TYPE": 0, "CLASSIFICATION_TYPE": "U", "NORAD_CAT_ID": 46277, "ELEMENT_SET_NO": 999, "REV_AT_EPOCH": 29179, "BSTAR": 0.00034650407, "MEAN_MOTION_DOT": 0.00013763, "MEAN_MOTION_DDOT": 0}, "tle": {"line1": "1 46277U 20061F   25337.33868845  .00013763  00000+0  34650-3 0  9990", "line2": "2 46277  97.2233  36.5584 0002362  67.9205 292.2293 15.40023388291798"}}, "geometry": {"type": "Point", "coordinates": [-158.61803279798156, -64.48807269510979]}}, {"type": "Feature", "properties": {"norad_id": 46984, "name": "SENTINEL-6A", "group": "resource", "lat": -22.947072726042798, "lon": 170.4861975882576, "alt_km": 1339.6767822568045, "timestamp": "2025-12-03T13:52:09.223090+00:00", "meta": {"OBJECT_NAME": "SENTINEL-6A", "OBJECT_ID": "2020-086A", "EPOCH": "2025-12-03T06:30:19.436256", "MEAN_MOTION": 12.80930094, "ECCENTRICITY": 0.00077286, "INCLINATION": 66.0389, "RA_OF_ASC_NODE": 181.9748, "ARG_OF_PERICENTER": 269.1854, "MEAN_ANOMALY": 90.8276, "EPHEMERIS_TYPE": 0, "CLASSIFICATION_TYPE": "U", "NORAD_CAT_ID": 46984, "ELEMENT_SET_NO": 999, "REV_AT_EPOCH": 23523, "BSTAR": 0.00015898635, "MEAN_MOTION_DOT": -2.4e-07, "MEAN_MOTION_DDOT": 0}, "tle": {"line1": "1 46984U 20086A   25337.27105829 -.00000024  00000+0  15899-3 0  9992", "line2": "2 46984  66.0389 181.9748 0007728 269.1854  90.8276 12.80930094235235"}}, "geometry": {"type": "Point", "coordinates": [170.4861975882576, -22.947072726042798]}}, {"type": "Feature", "properties": {"norad_id": 48079, "name": "GAOFEN-12 02", "group": "resource", "lat": 32.96794489633136, "lon": 156.85244145254032, "alt_km": 623.2445654973435, "timestamp": "2025-12-03T13:52:09.223101+00:00", "meta": {"OBJECT_NAME": "GAOFEN-12 02", "OBJECT_ID": "2021-026A", "EPOCH": "2025-12-03T08:20:38.374368", "MEAN_MOTION": 14.80656695, "ECCENTRICITY": 0.00032597, "INCLINATION": 97.9849, "RA_OF_ASC_NODE": 331.3997, "ARG_OF_PERICENTER": 119.8246, "MEAN_ANOMALY": 240.329, "EPHEMERIS_TYPE": 0, "CLASSIFICATION_TYPE": "U", "NORAD_CAT_ID": 48079, "ELEMENT_SET_NO": 999, "REV_AT_EPOCH": 25278, "BSTAR": 0.00011268306, "MEAN_MOTION_DOT": 8.13e-06, "MEAN_MOTION_DDOT": 0}, "tle": {"line1": "1 48079U 21026A   25337.34766637  .00000813  00000+0  11268-3 0  9993", "line2": "2 48079  97.9849 331.3997 0003259 119.8246 240.3290 14.80656695252785"}}, "geometry": {"type": "Point", "coordinates": [156.85244145254032, 32.96794489633136]}}, {"type": "Feature", "properties": {"norad_id": 48268, "name": "PLEIADES NEO 3", "group": "resource", "lat": -0.5842727880212133, "lon": -129.9310723348771, "alt_km": 627.1240312327527, "timestamp": "2025-12-03T13:52:09.223115+00:00", "meta": {"OBJECT_NAME": "PLEIADES NEO 3", "OBJECT_ID": "2021-034A", "EPOCH": "2025-12-03T08:11:42.177696", "MEAN_MOTION": 14.81667915, "ECCENTRICITY": 0.00012654, "INCLINATION": 97.8947, "RA_OF_ASC_NODE": 49.917, "ARG_OF_PERICENTER": 93.8271, "MEAN_ANOMALY": 266.3087, "EPHEMERIS_TYPE": 0, "CLASSIFICATION_TYPE": "U", "NORAD_CAT_ID": 48268, "ELEMENT_SET_NO": 999, "REV_AT_EPOCH": 24865, "BSTAR": -1.547655e-06, "MEAN_MOTION_DOT": -6.4e-07, "MEAN_MOTION_DDOT": 0}, "tle": {"line1": "1 48268U 21034A   25337.34146039 -.00000064  00000+0 -15477-5 0  9998", "line2": "2 48268  97.8947  49.9170 0001265  93.8271 266.3087 14.81667915248653"}}, "geometry": {"type": "Point", "coordinates": [-129.9310723348771, -0.5842727880212133]}}, {"type": "Feature", "properties": {"norad_id": 49070, "name": "PLEIADES NEO 4", "group": "resource", "lat": 0.37595365619262283, "lon": 50.09407218006087, "alt_km": 627.115675222035, "timestamp": "2025-12-03T13:52:09.223126+00:00", "meta": {"OBJECT_NAME": "PLEIADES NEO 4", "OBJECT_ID": "2021-073E", "EPOCH": "2025-12-03T09:00:18.644256", "MEAN_MOTION": 14.81671931, "ECCENTRICITY": 0.00012585, "INCLINATION": 97.8948, "RA_OF_ASC_NODE": 49.9465, "ARG_OF_PERICENTER": 96.9891, "MEAN_ANOMALY": 263.1465, "EPHEMERIS_TYPE": 0, "CLASSIFICATION_TYPE": "U", "NORAD_CAT_ID": 49070, "ELEMENT_SET_NO": 999, "REV_AT_EPOCH": 23237, "BSTAR": 1.449366e-06, "MEAN_MOTION_DOT": -4.1e-07, "MEAN_MOTION_DDOT": 0}, "tle": {"line1": "1 49070U 21073E   25337.37521579 -.00000041  00000+0  14494-5 0  9994", "line2": "2 49070  97.8948  49.9465 0001258  96.9891 263.1465 14.81671931232377"}}, "geometry": {"type": "Point", "coordinates": [50.09407218006087, 0.37595365619262283]}}, {"type": "Feature", "properties": {"norad_id": 49260, "name": "LANDSAT 9", "group": "resource", "lat": 72.23791756316668, "lon": -107.38882528650159, "alt_km": 694.8062988548318, "timestamp": "2025-12-03T13:52:09.223136+00:00", "meta": {"OBJECT_NAME": "LANDSAT 9", "OBJECT_ID": "2021-088A", "EPOCH": "2025-12-03T05:08:43.062720", "MEAN_MOTION": 14.57114347, "ECCENTRICITY": 0.00010761, "INCLINATION": 98.2104, "RA_OF_ASC_NODE": 45.4628, "ARG_OF_PERICENTER": 92.6591, "MEAN_ANOMALY": 267.4731, "EPHEMERIS_TYPE": 0, "CLASSIFICATION_TYPE": "U", "NORAD_CAT_ID": 49260, "ELEMENT_SET_NO": 999, "REV_AT_EPOCH": 22246, "BSTAR": 0.00016952742, "MEAN_MOTION_DOT": 7.19e-06, "MEAN_MOTION_DDOT": 0}, "tle": {"line1": "1 49260U 21088A   25337.21438730  .00000719  00000+0  16953-3 0  9991", "line2": "2 49260  98.2104  45.4628 0001076  92.6591 267.4731 14.57114347222465"}}, "geometry": {"type": "Point", "coordinates": [-107.38882528650159, 72.23791756316668]}}]}